{
  "norad_id": 63917,
  "name": "STARLINK-34075",
  "history": [
    {
      "epoch": "2026-03-28T16:10:36.255936",
      "apogee_km": 484.21590113518323,
      "perigee_km": 481.7700455222903,
      "latitude_deg": -18.403417528304217,
      "longitude_deg": -83.5930489602033,
      "semi_major_axis_km": 6861.129973328736,
      "eccentricity": 0.00017824,
      "inclination_deg": 43.0038,
      "raan_deg": 68.7883,
      "arg_perigee_deg": 280.8626,
      "mean_anomaly_deg": 79.2025,
      "mean_motion_rev_day": 15.27598743
    }
  ]
}