{"fetched_at":"2026-03-29T16:36:15Z","count":15609,"tles":[{"name":"STARLINK-34075","line1":"1 63917U 25095AD  26087.67403074  .00023923  00000+0  87555-3 0  9992","line2":"2 63917  43.0038  68.7883 0001782 280.8626  79.2025 15.27598743 50681","category":"Starlink"}]}